[{"OBJECT_NAME":"IRIDIUM 152","OBJECT_ID":"2018-047D","EPOCH":"2026-04-04T13:34:46.165440","MEAN_MOTION":14.34217584,"ECCENTRICITY":0.0002022,"INCLINATION":86.3934,"RA_OF_ASC_NODE":119.1248,"ARG_OF_PERICENTER":91.2991,"MEAN_ANOMALY":268.8437,"EPHEMERIS_TYPE":0,"CLASSIFICATION_TYPE":"U","NORAD_CAT_ID":43479,"ELEMENT_SET_NO":999,"REV_AT_EPOCH":41193,"BSTAR":-7.4289e-6,"MEAN_MOTION_DOT":-1.0e-8,"MEAN_MOTION_DDOT":0},{"OBJECT_NAME":"IRIDIUM 147","OBJECT_ID":"2018-047E","EPOCH":"2026-04-04T12:03:26.249760","MEAN_MOTION":14.34218052,"ECCENTRICITY":0.00023677,"INCLINATION":86.3932,"RA_OF_ASC_NODE":119.1555,"ARG_OF_PERICENTER":92.7644,"MEAN_ANOMALY":267.3823,"EPHEMERIS_TYPE":0,"CLASSIFICATION_TYPE":"U","NORAD_CAT_ID":43480,"ELEMENT_SET_NO":999,"REV_AT_EPOCH":41192,"BSTAR":1.9157774e-5,"MEAN_MOTION_DOT":7.3e-7,"MEAN_MOTION_DDOT":0},{"OBJECT_NAME":"IRIDIUM 110","OBJECT_ID":"2018-047F","EPOCH":"2026-04-04T12:12:34.166592","MEAN_MOTION":14.34217817,"ECCENTRICITY":0.0001985,"INCLINATION":86.3934,"RA_OF_ASC_NODE":119.2427,"ARG_OF_PERICENTER":85.3511,"MEAN_ANOMALY":274.7911,"EPHEMERIS_TYPE":0,"CLASSIFICATION_TYPE":"U","NORAD_CAT_ID":43481,"ELEMENT_SET_NO":999,"REV_AT_EPOCH":41191,"BSTAR":4.779001e-6,"MEAN_MOTION_DOT":3.3e-7,"MEAN_MOTION_DDOT":0},{"OBJECT_NAME":"IRIDIUM 162","OBJECT_ID":"2018-047G","EPOCH":"2026-04-04T14:27:49.613184","MEAN_MOTION":14.43277047,"ECCENTRICITY":0.0002235,"INCLINATION":86.4454,"RA_OF_ASC_NODE":119.141,"ARG_OF_PERICENTER":95.0083,"MEAN_ANOMALY":265.1374,"EPHEMERIS_TYPE":0,"CLASSIFICATION_TYPE":"U","NORAD_CAT_ID":43482,"ELEMENT_SET_NO":999,"REV_AT_EPOCH":41451,"BSTAR":5.9976e-5,"MEAN_MOTION_DOT":2.22e-6,"MEAN_MOTION_DDOT":0},{"OBJECT_NAME":"IRIDIUM 160","OBJECT_ID":"2018-061A","EPOCH":"2026-04-04T22:37:50.402208","MEAN_MOTION":14.34217803,"ECCENTRICITY":0.00022185,"INCLINATION":86.3914,"RA_OF_ASC_NODE":87.426,"ARG_OF_PERICENTER":86.4229,"MEAN_ANOMALY":273.7221,"EPHEMERIS_TYPE":0,"CLASSIFICATION_TYPE":"U","NORAD_CAT_ID":43569,"ELEMENT_SET_NO":999,"REV_AT_EPOCH":40287,"BSTAR":3.804311e-6,"MEAN_MOTION_DOT":3.0e-7,"MEAN_MOTION_DDOT":0},{"OBJECT_NAME":"IRIDIUM 166","OBJECT_ID":"2018-061B","EPOCH":"2026-04-04T23:14:22.471296","MEAN_MOTION":14.34217629,"ECCENTRICITY":0.00022462,"INCLINATION":86.3911,"RA_OF_ASC_NODE":87.3669,"ARG_OF_PERICENTER":89.9277,"MEAN_ANOMALY":270.2176,"EPHEMERIS_TYPE":0,"CLASSIFICATION_TYPE":"U","NORAD_CAT_ID":43570,"ELEMENT_SET_NO":999,"REV_AT_EPOCH":40290,"BSTAR":-6.37858e-7,"MEAN_MOTION_DOT":1.8e-7,"MEAN_MOTION_DDOT":0},{"OBJECT_NAME":"IRIDIUM 158","OBJECT_ID":"2018-061C","EPOCH":"2026-04-04T22:28:42.405888","MEAN_MOTION":14.34217307,"ECCENTRICITY":0.00020163,"INCLINATION":86.3911,"RA_OF_ASC_NODE":87.3901,"ARG_OF_PERICENTER":92.1095,"MEAN_ANOMALY":268.0331,"EPHEMERIS_TYPE":0,"CLASSIFICATION_TYPE":"U","NORAD_CAT_ID":43571,"ELEMENT_SET_NO":999,"REV_AT_EPOCH":40286,"BSTAR":-1.3988497e-5,"MEAN_MOTION_DOT":-1.9e-7,"MEAN_MOTION_DDOT":0},{"OBJECT_NAME":"IRIDIUM 165","OBJECT_ID":"2018-061D","EPOCH":"2026-04-04T23:05:14.382528","MEAN_MOTION":14.34217235,"ECCENTRICITY":0.00022593,"INCLINATION":86.3915,"RA_OF_ASC_NODE":87.4246,"ARG_OF_PERICENTER":89.8167,"MEAN_ANOMALY":270.3288,"EPHEMERIS_TYPE":0,"CLASSIFICATION_TYPE":"U","NORAD_CAT_ID":43572,"ELEMENT_SET_NO":999,"REV_AT_EPOCH":40289,"BSTAR":-1.9195808e-5,"MEAN_MOTION_DOT":-3.4e-7,"MEAN_MOTION_DDOT":0},{"OBJECT_NAME":"IRIDIUM 155","OBJECT_ID":"2018-061E","EPOCH":"2026-04-04T22:10:26.376960","MEAN_MOTION":14.34217544,"ECCENTRICITY":0.00021555,"INCLINATION":86.3908,"RA_OF_ASC_NODE":87.313,"ARG_OF_PERICENTER":93.632,"MEAN_ANOMALY":266.5122,"EPHEMERIS_TYPE":0,"CLASSIFICATION_TYPE":"U","NORAD_CAT_ID":43573,"ELEMENT_SET_NO":999,"REV_AT_EPOCH":40285,"BSTAR":-6.809508e-6,"MEAN_MOTION_DOT":1.0e-8,"MEAN_MOTION_DDOT":0},{"OBJECT_NAME":"IRIDIUM 154","OBJECT_ID":"2018-061F","EPOCH":"2026-04-04T21:43:02.435520","MEAN_MOTION":14.34217686,"ECCENTRICITY":0.00023122,"INCLINATION":86.3912,"RA_OF_ASC_NODE":87.4511,"ARG_OF_PERICENTER":89.3971,"MEAN_ANOMALY":270.749,"EPHEMERIS_TYPE":0,"CLASSIFICATION_TYPE":"U","NORAD_CAT_ID":43574,"ELEMENT_SET_NO":999,"REV_AT_EPOCH":40290,"BSTAR":-7.33386e-7,"MEAN_MOTION_DOT":1.8e-7,"MEAN_MOTION_DDOT":0},{"OBJECT_NAME":"IRIDIUM 163","OBJECT_ID":"2018-061G","EPOCH":"2026-04-04T11:12:50.370624","MEAN_MOTION":14.34217608,"ECCENTRICITY":0.00021324,"INCLINATION":86.3911,"RA_OF_ASC_NODE":87.5516,"ARG_OF_PERICENTER":90.3085,"MEAN_ANOMALY":269.8355,"EPHEMERIS_TYPE":0,"CLASSIFICATION_TYPE":"U","NORAD_CAT_ID":43575,"ELEMENT_SET_NO":999,"REV_AT_EPOCH":40281,"BSTAR":-2.560995e-6,"MEAN_MOTION_DOT":1.3e-7,"MEAN_MOTION_DDOT":0},{"OBJECT_NAME":"IRIDIUM 156","OBJECT_ID":"2018-061H","EPOCH":"2026-04-04T22:19:34.233312","MEAN_MOTION":14.34217507,"ECCENTRICITY":0.00023014,"INCLINATION":86.391,"RA_OF_ASC_NODE":87.365,"ARG_OF_PERICENTER":93.894,"MEAN_ANOMALY":266.2519,"EPHEMERIS_TYPE":0,"CLASSIFICATION_TYPE":"U","NORAD_CAT_ID":43576,"ELEMENT_SET_NO":999,"REV_AT_EPOCH":40287,"BSTAR":3.0249459e-5,"MEAN_MOTION_DOT":1.04e-6,"MEAN_MOTION_DDOT":0},{"OBJECT_NAME":"IRIDIUM 164","OBJECT_ID":"2018-061J","EPOCH":"2026-04-04T21:52:10.368768","MEAN_MOTION":14.34217759,"ECCENTRICITY":0.00023956,"INCLINATION":86.3912,"RA_OF_ASC_NODE":87.4123,"ARG_OF_PERICENTER":86.7001,"MEAN_ANOMALY":273.4469,"EPHEMERIS_TYPE":0,"CLASSIFICATION_TYPE":"U","NORAD_CAT_ID":43577,"ELEMENT_SET_NO":999,"REV_AT_EPOCH":40291,"BSTAR":-7.987085e-6,"MEAN_MOTION_DOT":-3.0e-8,"MEAN_MOTION_DDOT":0},{"OBJECT_NAME":"IRIDIUM 159","OBJECT_ID":"2018-061K","EPOCH":"2026-04-04T12:44:10.350240","MEAN_MOTION":14.34217805,"ECCENTRICITY":0.0002145,"INCLINATION":86.391,"RA_OF_ASC_NODE":87.5099,"ARG_OF_PERICENTER":86.3379,"MEAN_ANOMALY":273.8062,"EPHEMERIS_TYPE":0,"CLASSIFICATION_TYPE":"U","NORAD_CAT_ID":43578,"ELEMENT_SET_NO":999,"REV_AT_EPOCH":40282,"BSTAR":1.9896e-6,"MEAN_MOTION_DOT":2.5e-7,"MEAN_MOTION_DDOT":0},{"OBJECT_NAME":"IRIDIUM 180","OBJECT_ID":"2019-002A","EPOCH":"2026-04-04T21:05:46.815648","MEAN_MOTION":14.3421931,"ECCENTRICITY":0.00021611,"INCLINATION":86.4015,"RA_OF_ASC_NODE":24.2246,"ARG_OF_PERICENTER":83.1313,"MEAN_ANOMALY":277.0128,"EPHEMERIS_TYPE":0,"CLASSIFICATION_TYPE":"U","NORAD_CAT_ID":43922,"ELEMENT_SET_NO":999,"REV_AT_EPOCH":37848,"BSTAR":0.00010277292,"MEAN_MOTION_DOT":3.08e-6,"MEAN_MOTION_DDOT":0},{"OBJECT_NAME":"IRIDIUM 176","OBJECT_ID":"2019-002B","EPOCH":"2026-04-04T19:43:26.290848","MEAN_MOTION":14.72253651,"ECCENTRICITY":0.00026596,"INCLINATION":86.6136,"RA_OF_ASC_NODE":24.2021,"ARG_OF_PERICENTER":85.5333,"MEAN_ANOMALY":274.6188,"EPHEMERIS_TYPE":0,"CLASSIFICATION_TYPE":"U","NORAD_CAT_ID":43923,"ELEMENT_SET_NO":999,"REV_AT_EPOCH":38845,"BSTAR":0.00024526168,"MEAN_MOTION_DOT":1.571e-5,"MEAN_MOTION_DDOT":0},{"OBJECT_NAME":"IRIDIUM 168","OBJECT_ID":"2019-002C","EPOCH":"2026-04-04T17:35:42.604800","MEAN_MOTION":14.34220191,"ECCENTRICITY":0.0002124,"INCLINATION":86.4016,"RA_OF_ASC_NODE":24.3606,"ARG_OF_PERICENTER":85.4074,"MEAN_ANOMALY":274.7364,"EPHEMERIS_TYPE":0,"CLASSIFICATION_TYPE":"U","NORAD_CAT_ID":43924,"ELEMENT_SET_NO":999,"REV_AT_EPOCH":37844,"BSTAR":0.00012499147,"MEAN_MOTION_DOT":3.7e-6,"MEAN_MOTION_DDOT":0}]
