IRIDIUM 152             
1 43479U 18047D   26094.56581210 -.00000001  00000+0 -74289-5 0  9993
2 43479  86.3934 119.1248 0002022  91.2991 268.8437 14.34217584411930
IRIDIUM 147             
1 43480U 18047E   26094.50238715  .00000073  00000+0  19158-4 0  9998
2 43480  86.3932 119.1555 0002367  92.7644 267.3823 14.34218052411927
IRIDIUM 110             
1 43481U 18047F   26094.50872878  .00000033  00000+0  47790-5 0  9993
2 43481  86.3934 119.2427 0001985  85.3511 274.7911 14.34217817411912
IRIDIUM 162             
1 43482U 18047G   26094.60265756  .00000222  00000+0  59976-4 0  9994
2 43482  86.4454 119.1410 0002235  95.0083 265.1374 14.43277047414510
IRIDIUM 160             
1 43569U 18061A   26094.94294447  .00000030  00000+0  38043-5 0  9992
2 43569  86.3914  87.4260 0002218  86.4229 273.7221 14.34217803402879
IRIDIUM 166             
1 43570U 18061B   26094.96831564  .00000018  00000+0 -63786-6 0  9993
2 43570  86.3911  87.3669 0002246  89.9277 270.2176 14.34217629402903
IRIDIUM 158             
1 43571U 18061C   26094.93660192 -.00000019  00000+0 -13988-4 0  9997
2 43571  86.3911  87.3901 0002016  92.1095 268.0331 14.34217307402868
IRIDIUM 165             
1 43572U 18061D   26094.96197202 -.00000034  00000+0 -19196-4 0  9992
2 43572  86.3915  87.4246 0002259  89.8167 270.3288 14.34217235402898
IRIDIUM 155             
1 43573U 18061E   26094.92391640  .00000001  00000+0 -68095-5 0  9997
2 43573  86.3908  87.3130 0002155  93.6320 266.5122 14.34217544402854
IRIDIUM 154             
1 43574U 18061F   26094.90488930  .00000018  00000+0 -73339-6 0  9991
2 43574  86.3912  87.4511 0002312  89.3971 270.7490 14.34217686402901
IRIDIUM 163             
1 43575U 18061G   26094.46724966  .00000013  00000+0 -25610-5 0  9998
2 43575  86.3911  87.5516 0002132  90.3085 269.8355 14.34217608402818
IRIDIUM 156             
1 43576U 18061H   26094.93025733  .00000104  00000+0  30249-4 0  9990
2 43576  86.3910  87.3650 0002301  93.8940 266.2519 14.34217507402878
IRIDIUM 164             
1 43577U 18061J   26094.91123112 -.00000003  00000+0 -79871-5 0  9994
2 43577  86.3912  87.4123 0002395  86.7001 273.4469 14.34217759402917
IRIDIUM 159             
1 43578U 18061K   26094.53067535  .00000025  00000+0  19896-5 0  9992
2 43578  86.3910  87.5099 0002145  86.3379 273.8062 14.34217805402821
IRIDIUM 180             
1 43922U 19002A   26094.87901407  .00000308  00000+0  10277-3 0  9999
2 43922  86.4015  24.2246 0002161  83.1313 277.0128 14.34219310378480
IRIDIUM 176             
1 43923U 19002B   26094.82183207  .00001571  00000+0  24526-3 0  9990
2 43923  86.6136  24.2021 0002659  85.5333 274.6188 14.72253651388453
IRIDIUM 168             
1 43924U 19002C   26094.73313200  .00000370  00000+0  12499-3 0  9991
2 43924  86.4016  24.3606 0002124  85.4074 274.7364 14.34220191378443
